0 COSMOS 2289 (GLONASS)
1 23204U 94050B   13280.35625054 -.00000034  00000-0  00000+0 0  7145
2 23204 066.6369 353.7187 0009466 327.8576 316.4902 02.13101639149090
0 COSMOS 2289 (GLONASS)
1 23204U 94050B   13287.49383729 -.00000063  00000-0  00000+0 0  7161
2 23204 066.6375 353.4858 0009008 331.2253 028.7812 02.13101832149258
0 COSMOS 2289 (GLONASS)
1 23204U 94050B   13287.49825936 -.00000063  00000-0  00000+0 0  7173
2 23204 066.6371 353.4864 0009522 327.3948 035.9938 02.13101922149258
0 COSMOS 2289 (GLONASS)
1 23204U 94050B   13289.86426802 -.00000058  00000-0  00000+0 0  7180
2 23204 066.6371 353.4097 0009553 327.0830 051.4075 02.13101960149300
0 COSMOS 2289 (GLONASS)
1 23204U 94050B   13293.62376969 -.00000058  00000-0  00000+0 0  7198
2 23204 066.6369 353.2877 0009576 326.8554 055.7685 02.13101938149383
